LEMUR-2-PETERG          
1 42841U 17042S   26068.48235713  .00023240  00000+0  81076-3 0  9993
2 42841  97.3980 253.6596 0003700 341.6938  18.4169 15.29611459473171
STARLINK-2654           
1 48454U 21040AC  26068.61511019  .00007068  00000+0  25046-3 0  9998
2 48454  53.1603 178.4674 0001338  68.4218 291.6926 15.30209025266675
